GLOBALSTAR M096 [+]     
1 39075U 13005D   24072.62617670 -.00000093  00000+0  57453-4 0  9993
2 39075  52.0060 195.5869 0000541  84.3464 275.7464 12.62273312513004
GLOBALSTAR M095 [+]     
1 39077U 13005F   24072.86369703 -.00000087  00000+0  96207-4 0  9995
2 39077  51.9785 277.4294 0000209  60.9623 299.1264 12.62264550511873
GLOBALSTAR M087 [+]     
1 52888U 22064A   24072.56670474 -.00000086  00000+0  80006-4 0  9991
2 52888  51.9747 185.2904 0010153 118.4301 241.7623 13.37567142 84593
